OBJECT_NAME,OBJECT_ID,EPOCH,MEAN_MOTION,ECCENTRICITY,INCLINATION,RA_OF_ASC_NODE,ARG_OF_PERICENTER,MEAN_ANOMALY,EPHEMERIS_TYPE,CLASSIFICATION_TYPE,NORAD_CAT_ID,ELEMENT_SET_NO,REV_AT_EPOCH,BSTAR,MEAN_MOTION_DOT,MEAN_MOTION_DDOT
ONEWEB-0531,2022-138AK,2026-06-20T08:08:14.942976,13.20771881,.0002866,87.9195,273.8068,101.0366,259.1089,0,U,54146,999,17972,-.50174E-4,-.7E-7,0
ONEWEB-0535,2022-138AL,2026-06-20T09:57:56.239200,13.19724830,.000215,87.9181,304.3153,94.3333,265.8045,0,U,54147,999,17726,.52012E-4,.34E-6,0
ONEWEB-0536,2022-138AM,2026-06-20T07:48:50.708160,13.20771304,.0003005,87.9185,273.8317,104.0560,256.0908,0,U,54148,999,17971,.13836E-3,.69E-6,0
ONEWEB-0527,2022-166A,2026-06-20T10:21:28.260576,13.21823473,.0001988,87.9249,243.3518,100.2550,259.8808,0,U,54642,999,17196,-.71726E-4,-.17E-6,0
ONEWEB-0528,2022-166B,2026-06-20T10:22:40.723392,13.21824877,.0001905,87.9251,243.3539,104.1729,255.9616,0,U,54643,999,17197,.14746E-3,.74E-6,0
ONEWEB-0539,2022-166C,2026-06-20T11:17:11.609664,13.21827504,.0001927,87.9259,243.3183,92.9397,267.1958,0,U,54644,999,17197,.20996E-3,.1E-5,0
ONEWEB-0540,2022-166D,2026-06-20T11:27:04.494240,13.21827194,.0002029,87.9253,243.3470,95.1941,264.9424,0,U,54645,999,17196,.19016E-3,.92E-6,0
ONEWEB-0542,2022-166E,2026-06-20T11:31:43.021920,13.21825071,.0001949,87.9262,243.3152,91.0909,269.0448,0,U,54646,999,17197,.57804E-4,.37E-6,0
ONEWEB-0545,2022-166F,2026-06-20T10:40:52.091040,13.21828030,.0002012,87.9251,243.3339,82.0967,278.0395,0,U,54647,999,17193,.68702E-4,.41E-6,0
ONEWEB-0580,2022-166G,2026-06-20T04:37:29.499456,13.21827948,.00021681,87.9253,243.3836,87.7883,272.3499,0,U,54648,999,17194,.15515734E-4,.19E-6,0
ONEWEB-0582,2022-166H,2026-06-20T05:38:04.637760,13.21826862,.0002102,87.9252,243.3678,86.4045,273.7330,0,U,54649,999,17192,.51786E-4,.34E-6,0
ONEWEB-0583,2022-166J,2026-06-20T11:22:01.801344,13.21824643,.0002011,87.9251,243.3436,95.4140,264.7223,0,U,54650,999,17196,.89386E-4,.5E-6,0
ONEWEB-0584,2022-166K,2026-06-20T04:35:05.477568,13.21825414,.00020877,87.9247,243.3853,94.8848,265.2524,0,U,54651,999,17191,-.29680555E-4,.1E-7,0
ONEWEB-0585,2022-166L,2026-06-20T10:36:01.277280,13.21826730,.0002033,87.9254,243.3227,103.3056,256.8305,0,U,54652,999,17195,-.57109E-4,-.11E-6,0
ONEWEB-0586,2022-166M,2026-06-20T10:55:23.308896,13.21824472,.0001968,87.9254,243.3455,93.8990,266.2369,0,U,54653,999,17195,.73059E-4,.43E-6,0
ONEWEB-0587,2022-166N,2026-06-20T11:09:55.324224,13.21824341,.0002102,87.9263,243.3170,107.8969,252.2395,0,U,54654,999,17211,.66319E-4,.4E-6,0
ONEWEB-0589,2022-166P,2026-06-20T10:50:32.666208,13.21825260,.0002287,87.9248,243.3317,76.5077,283.6312,0,U,54655,999,17197,.14217E-3,.72E-6,0
ONEWEB-0590,2022-166Q,2026-06-20T11:26:40.833600,13.21827299,.0002507,87.9260,243.3171,98.0650,262.0769,0,U,54656,999,17196,.29994E-4,.25E-6,0
ONEWEB-0591,2022-166R,2026-06-20T06:16:50.499840,13.21825920,.0002088,87.9250,243.3743,97.8801,262.2570,0,U,54657,999,17196,-.14986E-3,-.49E-6,0
ONEWEB-0592,2022-166S,2026-06-20T06:21:39.684096,13.21827161,.0002027,87.9260,243.3522,98.2307,261.9057,0,U,54658,999,17184,-.14405E-3,-.46E-6,0
ONEWEB-0593,2022-166T,2026-06-20T10:31:09.505344,13.21824817,.0001899,87.9252,243.3292,95.1381,264.9969,0,U,54659,999,17197,-.55004E-4,-.1E-6,0
ONEWEB-0594,2022-166U,2026-06-20T11:00:14.181408,13.21827962,.0001941,87.9251,243.3413,103.0381,257.0969,0,U,54660,999,17199,.51886E-3,.227E-5,0
ONEWEB-0595,2022-166V,2026-06-20T04:59:18.197664,13.21825786,.00021558,87.9259,243.3720,104.5901,255.5472,0,U,54661,999,17193,-.41339591E-3,-.158E-5,0
ONEWEB-0596,2022-166W,2026-06-20T04:22:59.070432,13.21826643,.00020724,87.9253,243.3885,101.0012,259.1355,0,U,54662,999,17193,.24699021E-4,.23E-6,0
ONEWEB-0597,2022-166X,2026-06-20T11:12:20.985120,13.21827752,.000201,87.9252,243.3351,95.1603,264.9760,0,U,54663,999,17197,.10257E-3,.55E-6,0
ONEWEB-0600,2022-166Y,2026-06-20T10:45:41.935392,13.21824504,.000181,87.9249,243.3302,97.4854,262.6486,0,U,54664,999,17194,-.11288E-3,-.34E-6,0
ONEWEB-0601,2022-166Z,2026-06-20T10:33:35.384832,13.21826047,.0002053,87.9248,243.3478,91.3718,268.7651,0,U,54665,999,17213,-.74547E-4,-.18E-6,0
ONEWEB-0602,2022-166AA,2026-06-20T11:32:55.927968,13.21826772,.0001747,87.9250,243.3454,96.4742,263.6591,0,U,54666,999,17198,-.68024E-4,-.15E-6,0
ONEWEB-0603,2022-166AB,2026-06-20T04:25:24.642336,13.21826655,.00019571,87.9260,243.3619,96.0482,264.0875,0,U,54667,999,17187,.11445733E-3,.6E-6,0
ONEWEB-0604,2022-166AC,2026-06-20T11:24:26.466048,13.21828035,.0002016,87.9262,243.3197,100.9570,259.1791,0,U,54668,999,17187,.92411E-5,.17E-6,0
