ONEWEB-0531             
1 54146U 22138AK  26171.33906184 -.00000007  00000+0 -50174-4 0  9996
2 54146  87.9195 273.8068 0002866 101.0366 259.1089 13.20771881179722
ONEWEB-0535             
1 54147U 22138AL  26171.41523425  .00000034  00000+0  52012-4 0  9990
2 54147  87.9181 304.3153 0002150  94.3333 265.8045 13.19724830177260
ONEWEB-0536             
1 54148U 22138AM  26171.32558690  .00000069  00000+0  13836-3 0  9991
2 54148  87.9185 273.8317 0003005 104.0560 256.0908 13.20771304179710
ONEWEB-0527             
1 54642U 22166A   26171.43157709 -.00000017  00000+0 -71726-4 0  9997
2 54642  87.9249 243.3518 0001988 100.2550 259.8808 13.21823473171965
ONEWEB-0528             
1 54643U 22166B   26171.43241578  .00000074  00000+0  14746-3 0  9995
2 54643  87.9251 243.3539 0001905 104.1729 255.9616 13.21824877171976
ONEWEB-0539             
1 54644U 22166C   26171.47027326  .00000100  00000+0  20996-3 0  9997
2 54644  87.9259 243.3183 0001927  92.9397 267.1958 13.21827504171973
ONEWEB-0540             
1 54645U 22166D   26171.47713535  .00000092  00000+0  19016-3 0  9993
2 54645  87.9253 243.3470 0002029  95.1941 264.9424 13.21827194171968
ONEWEB-0542             
1 54646U 22166E   26171.48035905  .00000037  00000+0  57804-4 0  9990
2 54646  87.9262 243.3152 0001949  91.0909 269.0448 13.21825071171970
ONEWEB-0545             
1 54647U 22166F   26171.44504735  .00000041  00000+0  68702-4 0  9993
2 54647  87.9251 243.3339 0002012  82.0967 278.0395 13.21828030171937
ONEWEB-0580             
1 54648U 22166G   26171.19270254  .00000019  00000+0  15516-4 0  9992
2 54648  87.9253 243.3836 0002168  87.7883 272.3499 13.21827948171943
ONEWEB-0582             
1 54649U 22166H   26171.23477590  .00000034  00000+0  51786-4 0  9996
2 54649  87.9252 243.3678 0002102  86.4045 273.7330 13.21826862171922
ONEWEB-0583             
1 54650U 22166J   26171.47363196  .00000050  00000+0  89386-4 0  9995
2 54650  87.9251 243.3436 0002011  95.4140 264.7223 13.21824643171960
ONEWEB-0584             
1 54651U 22166K   26171.19103562  .00000001  00000+0 -29681-4 0  9993
2 54651  87.9247 243.3853 0002087  94.8848 265.2524 13.21825414171912
ONEWEB-0585             
1 54652U 22166L   26171.44168145 -.00000011  00000+0 -57109-4 0  9998
2 54652  87.9254 243.3227 0002033 103.3056 256.8305 13.21826730171953
ONEWEB-0586             
1 54653U 22166M   26171.45513089  .00000043  00000+0  73059-4 0  9996
2 54653  87.9254 243.3455 0001968  93.8990 266.2369 13.21824472171959
ONEWEB-0587             
1 54654U 22166N   26171.46522366  .00000040  00000+0  66319-4 0  9994
2 54654  87.9263 243.3170 0002102 107.8969 252.2395 13.21824341172115
ONEWEB-0589             
1 54655U 22166P   26171.45176697  .00000072  00000+0  14217-3 0  9990
2 54655  87.9248 243.3317 0002287  76.5077 283.6312 13.21825260171979
ONEWEB-0590             
1 54656U 22166Q   26171.47686150  .00000025  00000+0  29994-4 0  9990
2 54656  87.9260 243.3171 0002507  98.0650 262.0769 13.21827299171963
ONEWEB-0591             
1 54657U 22166R   26171.26169560 -.00000049  00000+0 -14986-3 0  9991
2 54657  87.9250 243.3743 0002088  97.8801 262.2570 13.21825920171968
ONEWEB-0592             
1 54658U 22166S   26171.26504264 -.00000046  00000+0 -14405-3 0  9999
2 54658  87.9260 243.3522 0002027  98.2307 261.9057 13.21827161171846
ONEWEB-0593             
1 54659U 22166T   26171.43830446 -.00000010  00000+0 -55004-4 0  9995
2 54659  87.9252 243.3292 0001899  95.1381 264.9969 13.21824817171970
ONEWEB-0594             
1 54660U 22166U   26171.45849747  .00000227  00000+0  51886-3 0  9994
2 54660  87.9251 243.3413 0001941 103.0381 257.0969 13.21827962171992
ONEWEB-0595             
1 54661U 22166V   26171.20784951 -.00000158  00000+0 -41340-3 0  9992
2 54661  87.9259 243.3720 0002155 104.5901 255.5472 13.21825786171932
ONEWEB-0596             
1 54662U 22166W   26171.18262813  .00000023  00000+0  24699-4 0  9996
2 54662  87.9253 243.3885 0002072 101.0012 259.1355 13.21826643171935
ONEWEB-0597             
1 54663U 22166X   26171.46690955  .00000055  00000+0  10257-3 0  9999
2 54663  87.9252 243.3351 0002010  95.1603 264.9760 13.21827752171974
ONEWEB-0600             
1 54664U 22166Y   26171.44840203 -.00000034  00000+0 -11288-3 0  9995
2 54664  87.9249 243.3302 0001810  97.4854 262.6486 13.21824504171946
ONEWEB-0601             
1 54665U 22166Z   26171.43999288 -.00000018  00000+0 -74547-4 0  9993
2 54665  87.9248 243.3478 0002053  91.3718 268.7651 13.21826047172139
ONEWEB-0602             
1 54666U 22166AA  26171.48120287 -.00000015  00000+0 -68024-4 0  9994
2 54666  87.9250 243.3454 0001747  96.4742 263.6591 13.21826772171983
ONEWEB-0603             
1 54667U 22166AB  26171.18431299  .00000060  00000+0  11446-3 0  9993
2 54667  87.9260 243.3619 0001957  96.0482 264.0875 13.21826655171876
ONEWEB-0604             
1 54668U 22166AC  26171.47530632  .00000017  00000+0  92411-5 0  9992
2 54668  87.9262 243.3197 0002016 100.9570 259.1791 13.21828035171876
